[{"OBJECT_NAME":"OBJECT L","OBJECT_ID":"2023-085L","EPOCH":"2026-03-09T23:02:21.999840","MEAN_MOTION":15.29079976,"ECCENTRICITY":0.0005428,"INCLINATION":97.486,"RA_OF_ASC_NODE":178.8598,"ARG_OF_PERICENTER":50.8528,"MEAN_ANOMALY":309.3193,"EPHEMERIS_TYPE":0,"CLASSIFICATION_TYPE":"U","NORAD_CAT_ID":57014,"ELEMENT_SET_NO":999,"REV_AT_EPOCH":15144,"BSTAR":0.00063462603,"MEAN_MOTION_DOT":0.00017871,"MEAN_MOTION_DDOT":0},{"OBJECT_NAME":"STARLINK-35772","OBJECT_ID":"2025-288T","EPOCH":"2026-03-09T22:00:01.999584","MEAN_MOTION":15.28420626,"ECCENTRICITY":0.0001878,"INCLINATION":43.0027,"RA_OF_ASC_NODE":22.309,"ARG_OF_PERICENTER":249.4274,"MEAN_ANOMALY":17.4897,"EPHEMERIS_TYPE":0,"CLASSIFICATION_TYPE":"U","NORAD_CAT_ID":66976,"ELEMENT_SET_NO":999,"REV_AT_EPOCH":585,"BSTAR":0.0010599511,"MEAN_MOTION_DOT":0.00029784,"MEAN_MOTION_DDOT":0}]
